start=new Date('2023-06-28T00:00:00.000Z').valueOf();
sats=[{"BSTAR":"0.00008100500000","OBJECT_TYPE":"PAYLOAD","RCS_SIZE":"LARGE","MEAN_ANOMALY":"279.3267","TIME_SYSTEM":"UTC","TLE_LINE1":"1 53787U 22111Q   23178.80710503  .00001002  00000-0  81005-4 0  9993","COUNTRY_CODE":"US","LAUNCH_DATE":"2022-09-11","ARG_OF_PERICENTER":"80.7818","OBJECT_NAME":"STARLINK-4743","MEAN_ELEMENT_THEORY":"SGP4","APOAPSIS":"540.320","MEAN_MOTION_DOT":"0.00001002","ECCENTRICITY":"0.00008280","MEAN_MOTION":"15.08839567","TLE_LINE2":"2 53787  53.2169  19.7585 0000828  80.7818 279.3267 15.08839567 44054","SEMIMAJOR_AXIS":"6917.882","GP_ID":"234594865","NORAD_CAT_ID":"53787","EPHEMERIS_TYPE":"0","REV_AT_EPOCH":"4405","OBJECT_ID":"2022-111Q","SITE":"AFETR","EPOCH":"2023-06-27T19:22:13.874592","MEAN_MOTION_DDOT":"0.0000000000000","CENTER_NAME":"EARTH","ELEMENT_SET_NO":"999","PERIOD":"95.438","PERIAPSIS":"539.174","INCLINATION":"53.2169","CLASSIFICATION_TYPE":"U","RA_OF_ASC_NODE":"19.7585","DECAY_DATE":null,"FILE":"3944530","REF_FRAME":"TEME"},{"FILE":"3944434","REF_FRAME":"TEME","PERIAPSIS":"538.917","INCLINATION":"53.2164","CLASSIFICATION_TYPE":"U","RA_OF_ASC_NODE":"19.3961","DECAY_DATE":null,"PERIOD":"95.438","ELEMENT_SET_NO":"999","EPHEMERIS_TYPE":"0","REV_AT_EPOCH":"4406","OBJECT_ID":"2022-111S","SITE":"AFETR","EPOCH":"2023-06-27T20:41:42.173088","MEAN_MOTION_DDOT":"0.0000000000000","CENTER_NAME":"EARTH","ECCENTRICITY":"0.00012190","MEAN_MOTION":"15.08835093","TLE_LINE2":"2 53789  53.2164  19.3961 0001219  86.0770 274.0362 15.08835093 44065","SEMIMAJOR_AXIS":"6917.895","NORAD_CAT_ID":"53789","GP_ID":"234592464","APOAPSIS":"540.604","MEAN_MOTION_DOT":"0.00001032","LAUNCH_DATE":"2022-09-11","OBJECT_NAME":"STARLINK-4666","ARG_OF_PERICENTER":"86.0770","MEAN_ELEMENT_THEORY":"SGP4","BSTAR":"0.00008294900000","OBJECT_TYPE":"PAYLOAD","MEAN_ANOMALY":"274.0362","RCS_SIZE":"LARGE","TIME_SYSTEM":"UTC","TLE_LINE1":"1 53789U 22111S   23178.86229367  .00001032  00000-0  82949-4 0  9995","COUNTRY_CODE":"US"},{"EPOCH":"2023-06-26T21:12:08.288064","MEAN_MOTION_DDOT":"0.0000000000000","CENTER_NAME":"EARTH","EPHEMERIS_TYPE":"0","REV_AT_EPOCH":"4391","OBJECT_ID":"2022-111T","SITE":"AFETR","ELEMENT_SET_NO":"999","PERIOD":"95.438","RA_OF_ASC_NODE":"23.9433","DECAY_DATE":null,"PERIAPSIS":"538.970","INCLINATION":"53.2179","CLASSIFICATION_TYPE":"U","FILE":"3943926","REF_FRAME":"TEME","TIME_SYSTEM":"UTC","TLE_LINE1":"1 53790U 22111T   23177.88342926  .00000166  00000-0  28491-4 0  9994","COUNTRY_CODE":"US","BSTAR":"0.00002849100000","OBJECT_TYPE":"PAYLOAD","RCS_SIZE":"LARGE","MEAN_ANOMALY":"263.6336","OBJECT_NAME":"STARLINK-4734","ARG_OF_PERICENTER":"96.4785","MEAN_ELEMENT_THEORY":"SGP4","LAUNCH_DATE":"2022-09-11","MEAN_MOTION_DOT":"0.00000166","APOAPSIS":"540.531","TLE_LINE2":"2 53790  53.2179  23.9433 0001128  96.4785 263.6336 15.08838381 43919","SEMIMAJOR_AXIS":"6917.885","NORAD_CAT_ID":"53790","GP_ID":"234580264","ECCENTRICITY":"0.00011280","MEAN_MOTION":"15.08838381"},{"TLE_LINE2":"2 53792  53.2168  23.3028 0000943  85.9255 274.1845 15.08838735 43939","NORAD_CAT_ID":"53792","GP_ID":"234580761","SEMIMAJOR_AXIS":"6917.884","MEAN_MOTION":"15.08838735","ECCENTRICITY":"0.00009430","MEAN_MOTION_DOT":"0.00000614","APOAPSIS":"540.402","ARG_OF_PERICENTER":"85.9255","OBJECT_NAME":"STARLINK-4739","MEAN_ELEMENT_THEORY":"SGP4","LAUNCH_DATE":"2022-09-11","TLE_LINE1":"1 53792U 22111V   23178.00853581  .00000614  00000-0  56655-4 0  9996","TIME_SYSTEM":"UTC","COUNTRY_CODE":"US","OBJECT_TYPE":"PAYLOAD","BSTAR":"0.00005665500000","MEAN_ANOMALY":"274.1845","RCS_SIZE":"LARGE","REF_FRAME":"TEME","FILE":"3943926","RA_OF_ASC_NODE":"23.3028","DECAY_DATE":null,"PERIAPSIS":"539.097","INCLINATION":"53.2168","CLASSIFICATION_TYPE":"U","ELEMENT_SET_NO":"999","PERIOD":"95.438","MEAN_MOTION_DDOT":"0.0000000000000","EPOCH":"2023-06-27T00:12:17.493984","CENTER_NAME":"EARTH","REV_AT_EPOCH":"4393","EPHEMERIS_TYPE":"0","SITE":"AFETR","OBJECT_ID":"2022-111V"},{"EPHEMERIS_TYPE":"0","REV_AT_EPOCH":"4397","OBJECT_ID":"2022-111W","SITE":"AFETR","EPOCH":"2023-06-27T06:29:54.460608","MEAN_MOTION_DDOT":"0.0000000000000","CENTER_NAME":"EARTH","ELEMENT_SET_NO":"999","PERIOD":"95.438","PERIAPSIS":"539.051","INCLINATION":"53.2162","CLASSIFICATION_TYPE":"U","RA_OF_ASC_NODE":"22.0998","DECAY_DATE":null,"FILE":"3944241","REF_FRAME":"TEME","BSTAR":"0.00009405500000","OBJECT_TYPE":"PAYLOAD","RCS_SIZE":"LARGE","MEAN_ANOMALY":"262.0897","TIME_SYSTEM":"UTC","TLE_LINE1":"1 53793U 22111W   23178.27076922  .00001209  00000-0  94055-4 0  9999","COUNTRY_CODE":"US","LAUNCH_DATE":"2022-09-11","ARG_OF_PERICENTER":"98.0209","OBJECT_NAME":"STARLINK-4728","MEAN_ELEMENT_THEORY":"SGP4","APOAPSIS":"540.447","MEAN_MOTION_DOT":"0.00001209","ECCENTRICITY":"0.00010090","MEAN_MOTION":"15.08838750","TLE_LINE2":"2 53793  53.2162  22.0998 0001009  98.0209 262.0897 15.08838750 43978","SEMIMAJOR_AXIS":"6917.884","GP_ID":"234587758","NORAD_CAT_ID":"53793"},{"ELEMENT_SET_NO":"999","PERIOD":"95.438","MEAN_MOTION_DDOT":"0.0000000000000","EPOCH":"2023-06-27T06:40:31.411776","CENTER_NAME":"EARTH","REV_AT_EPOCH":"4397","EPHEMERIS_TYPE":"0","SITE":"AFETR","OBJECT_ID":"2022-111X","REF_FRAME":"TEME","FILE":"3944260","RA_OF_ASC_NODE":"22.1407","DECAY_DATE":null,"INCLINATION":"53.2171","PERIAPSIS":"538.991","CLASSIFICATION_TYPE":"U","ARG_OF_PERICENTER":"86.0896","OBJECT_NAME":"STARLINK-4730","MEAN_ELEMENT_THEORY":"SGP4","LAUNCH_DATE":"2022-09-11","TLE_LINE1":"1 53794U 22111X   23178.27814134  .00000864  00000-0  72361-4 0  9997","TIME_SYSTEM":"UTC","COUNTRY_CODE":"US","OBJECT_TYPE":"PAYLOAD","BSTAR":"0.00007236100000","RCS_SIZE":"LARGE","MEAN_ANOMALY":"274.0221","TLE_LINE2":"2 53794  53.2171  22.1407 0001096  86.0896 274.0221 15.08838599 43975","NORAD_CAT_ID":"53794","GP_ID":"234588219","SEMIMAJOR_AXIS":"6917.885","MEAN_MOTION":"15.08838599","ECCENTRICITY":"0.00010960","MEAN_MOTION_DOT":"0.00000864","APOAPSIS":"540.508"},{"OBJECT_TYPE":"PAYLOAD","BSTAR":"0.00008961400000","MEAN_ANOMALY":"277.7140","RCS_SIZE":"LARGE","TLE_LINE1":"1 53795U 22111Y   23178.85860230  .00001139  00000-0  89614-4 0  9995","TIME_SYSTEM":"UTC","COUNTRY_CODE":"US","LAUNCH_DATE":"2022-09-11","ARG_OF_PERICENTER":"82.3979","OBJECT_NAME":"STARLINK-4742","MEAN_ELEMENT_THEORY":"SGP4","APOAPSIS":"540.522","MEAN_MOTION_DOT":"0.00001139","MEAN_MOTION":"15.08839507","ECCENTRICITY":"0.00011210","TLE_LINE2":"2 53795  53.2174  19.3722 0001121  82.3979 277.7140 15.08839507 44068","GP_ID":"234595264","NORAD_CAT_ID":"53795","SEMIMAJOR_AXIS":"6917.882","REV_AT_EPOCH":"4406","EPHEMERIS_TYPE":"0","SITE":"AFETR","OBJECT_ID":"2022-111Y","MEAN_MOTION_DDOT":"0.0000000000000","EPOCH":"2023-06-27T20:36:23.238720","CENTER_NAME":"EARTH","ELEMENT_SET_NO":"999","PERIOD":"95.438","INCLINATION":"53.2174","PERIAPSIS":"538.971","CLASSIFICATION_TYPE":"U","RA_OF_ASC_NODE":"19.3722","DECAY_DATE":null,"REF_FRAME":"TEME","FILE":"3944530"},{"LAUNCH_DATE":"2022-09-11","MEAN_ELEMENT_THEORY":"SGP4","ARG_OF_PERICENTER":"88.5242","OBJECT_NAME":"STARLINK-4721","RCS_SIZE":"LARGE","MEAN_ANOMALY":"271.5854","OBJECT_TYPE":"PAYLOAD","BSTAR":"-0.00000670280000","COUNTRY_CODE":"US","TLE_LINE1":"1 53796U 22111Z   23178.79788295 -.00000394  00000-0 -67028-5 0  9999","TIME_SYSTEM":"UTC","MEAN_MOTION":"15.08831102","ECCENTRICITY":"0.00009010","NORAD_CAT_ID":"53796","GP_ID":"234595635","SEMIMAJOR_AXIS":"6917.908","TLE_LINE2":"2 53796  53.2181 359.6313 0000901  88.5242 271.5854 15.08831102 44415","APOAPSIS":"540.396","MEAN_MOTION_DOT":"-0.00000394","PERIOD":"95.438","ELEMENT_SET_NO":"999","SITE":"AFETR","OBJECT_ID":"2022-111Z","REV_AT_EPOCH":"4441","EPHEMERIS_TYPE":"0","CENTER_NAME":"EARTH","MEAN_MOTION_DDOT":"0.0000000000000","EPOCH":"2023-06-27T19:08:57.086880","REF_FRAME":"TEME","FILE":"3944560","CLASSIFICATION_TYPE":"U","PERIAPSIS":"539.149","INCLINATION":"53.2181","DECAY_DATE":null,"RA_OF_ASC_NODE":"359.6313"},{"MEAN_MOTION_DOT":"0.00001614","APOAPSIS":"540.441","TLE_LINE2":"2 53797  53.2179  19.3040 0001030  92.7772 267.3338 15.08845434 44063","SEMIMAJOR_AXIS":"6917.864","GP_ID":"234595982","NORAD_CAT_ID":"53797","ECCENTRICITY":"0.00010300","MEAN_MOTION":"15.08845434","TIME_SYSTEM":"UTC","TLE_LINE1":"1 53797U 22111AA  23178.84754552  .00001614  00000-0  11947-3 0  9996","COUNTRY_CODE":"US","BSTAR":"0.00011947000000","OBJECT_TYPE":"PAYLOAD","RCS_SIZE":"LARGE","MEAN_ANOMALY":"267.3338","OBJECT_NAME":"STARLINK-4723","ARG_OF_PERICENTER":"92.7772","MEAN_ELEMENT_THEORY":"SGP4","LAUNCH_DATE":"2022-09-11","RA_OF_ASC_NODE":"19.3040","DECAY_DATE":null,"PERIAPSIS":"539.016","INCLINATION":"53.2179","CLASSIFICATION_TYPE":"U","FILE":"3944555","REF_FRAME":"TEME","EPOCH":"2023-06-27T20:20:27.932928","MEAN_MOTION_DDOT":"0.0000000000000","CENTER_NAME":"EARTH","EPHEMERIS_TYPE":"0","REV_AT_EPOCH":"4406","OBJECT_ID":"2022-111AA","SITE":"AFETR","PERIOD":"95.437","ELEMENT_SET_NO":"999"},{"MEAN_MOTION_DOT":"0.00001191","APOAPSIS":"540.440","TLE_LINE2":"2 53798  53.2178  19.3251 0001024  92.1829 267.9281 15.08844349 44042","SEMIMAJOR_AXIS":"6917.867","NORAD_CAT_ID":"53798","GP_ID":"234595409","ECCENTRICITY":"0.00010240","MEAN_MOTION":"15.08844349","TIME_SYSTEM":"UTC","TLE_LINE1":"1 53798U 22111AB  23178.85122934  .00001191  00000-0  92915-4 0  9996","COUNTRY_CODE":"US","BSTAR":"0.00009291500000","OBJECT_TYPE":"PAYLOAD","MEAN_ANOMALY":"267.9281","RCS_SIZE":"LARGE","ARG_OF_PERICENTER":"92.1829","OBJECT_NAME":"STARLINK-4712","MEAN_ELEMENT_THEORY":"SGP4","LAUNCH_DATE":"2022-09-11","RA_OF_ASC_NODE":"19.3251","DECAY_DATE":null,"INCLINATION":"53.2178","PERIAPSIS":"539.024","CLASSIFICATION_TYPE":"U","FILE":"3944565","REF_FRAME":"TEME","EPOCH":"2023-06-27T20:25:46.214976","MEAN_MOTION_DDOT":"0.0000000000000","CENTER_NAME":"EARTH","EPHEMERIS_TYPE":"0","REV_AT_EPOCH":"4404","OBJECT_ID":"2022-111AB","SITE":"AFETR","ELEMENT_SET_NO":"999","PERIOD":"95.437"}];
